STARLINK-4061           
1 53247U 22086F   26048.97886590  .00015448  00000+0  98856-3 0  9991
2 53247  53.2172 287.7908 0001864  95.1286 264.9919 15.08765993198331
STARLINK-4135           
1 53248U 22086G   26049.82892223  .00000763  00000+0  66021-4 0  9991
2 53248  53.2172 283.8986 0001344  92.3491 267.7655 15.08835474198469
STARLINK-4128           
1 53249U 22086H   26049.83216827 -.00001266  00000+0 -61431-4 0  9994
2 53249  53.2162 278.7854 0001472  98.9792 261.1366 15.08845498198233
STARLINK-4059           
1 53250U 22086J   26049.83488961  .00000225  00000+0  32196-4 0  9994
2 53250  53.2168 278.7647 0001502  78.3999 281.7162 15.08848052198226
STARLINK-4129           
1 53251U 22086K   26049.82384756  .00000494  00000+0  49137-4 0  9992
2 53251  53.2163 278.8126 0001339  89.4812 270.6333 15.08837924198212
STARLINK-4132           
1 53252U 22086L   26049.82752192  .00000631  00000+0  57720-4 0  9996
2 53252  53.2171 278.7505 0001480  80.9962 279.1198 15.08838767198232
STARLINK-4133           
1 53253U 22086M   26049.82018645  .00001266  00000+0  97680-4 0  9999
2 53253  53.2183 278.8298 0001096 100.1110 260.0006 15.08819497198213
STARLINK-4134           
1 53254U 22086N   26049.82849387  .00000919  00000+0  75816-4 0  9996
2 53254  53.2175 278.8042 0001444  80.6780 279.4375 15.08845818198235
STARLINK-4142           
1 53255U 22086P   26049.81281051  .00000482  00000+0  48391-4 0  9997
2 53255  53.2170 278.8650 0001373  95.5242 264.5907 15.08834072198219
STARLINK-4147           
1 53256U 22086Q   26049.81649034  .00001271  00000+0  97945-4 0  9993
2 53256  53.2169 278.8485 0001403  91.6989 268.4164 15.08836897198218
STARLINK-4144           
1 53257U 22086R   26049.86801028  .00000450  00000+0  46366-4 0  9991
2 53257  53.2170 278.6169 0001466  85.9676 274.1483 15.08832054198226
STARLINK-4127           
1 53258U 22086S   26049.87535766  .00002961  00000+0  20398-3 0  9991
2 53258  53.2168 278.5858 0001580  98.2213 261.8958 15.08851192198223
STARLINK-4140           
1 53259U 22086T   26049.83116365  .00000270  00000+0  35016-4 0  9993
2 53259  53.2173 278.4233 0001115  88.9928 271.1191 15.08842971198227
STARLINK-4062           
1 53261U 22086V   26049.85696594 -.00002850  00000+0 -16105-3 0  9990
2 53261  53.2176 278.6606 0001625  96.6503 263.4675 15.08831772198228
STARLINK-4085           
1 53262U 22086W   26049.86433051  .00000270  00000+0  35075-4 0  9999
2 53262  53.2173 278.6331 0001457  93.7650 266.3508 15.08833489198229
STARLINK-4130           
1 53263U 22086X   26049.85325431  .00003811  00000+0  25725-3 0  9995
2 53263  53.2175 278.6819 0001088  77.3604 282.7510 15.08861731198226
STARLINK-3950           
1 53264U 22086Y   26049.86065028  .00000324  00000+0  38449-4 0  9994
2 53264  53.2171 278.6501 0001392  94.3485 265.7666 15.08833855198224
STARLINK-4097           
1 53265U 22086Z   26049.91216719  .00002126  00000+0  15165-3 0  9997
2 53265  53.2162 278.4178 0001430  83.3146 276.8009 15.08837976198231
STARLINK-4058           
1 53266U 22086AA  26049.84960737 -.00000192  00000+0  60104-5 0  9993
2 53266  53.2164 278.6976 0001427  86.2565 273.8590 15.08837236198225
STARLINK-4060           
1 53267U 22086AB  26049.83856462  .00000031  00000+0  20061-4 0  9990
2 53267  53.2172 278.7481 0001395  86.5608 273.5544 15.08838943198224
STARLINK-4109           
1 53268U 22086AC  26049.84224556  .00000102  00000+0  24479-4 0  9991
2 53268  53.2173 278.7306 0001330  95.3611 264.7533 15.08836265198228
STARLINK-4057           
1 53269U 22086AD  26049.91671296  .01179162  00000+0  22477-1 0  9994
2 53269  53.2371 265.6594 0001055  93.7758 335.6306 15.44900482  5744
STARLINK-4122           
1 53272U 22086AG  26049.83580625  .00000152  00000+0  27664-4 0  9991
2 53272  53.2168 268.7604 0001608 103.1953 256.9218 15.08838797198351
STARLINK-4051           
1 53273U 22086AH  26049.81742114  .00000725  00000+0  63628-4 0  9999
2 53273  53.2169 268.8458 0001321  74.3521 285.7617 15.08835140198344
STARLINK-4050           
1 53274U 22086AJ  26049.82844772  .00000263  00000+0  34600-4 0  9999
2 53274  53.2168 268.7927 0001439  96.2069 263.9087 15.08835349198355
STARLINK-4179           
1 53275U 22086AK  26049.81372753 -.00000263  00000+0  15994-5 0  9991
2 53275  53.2163 268.8600 0001674  89.7415 270.3769 15.08838610198345
STARLINK-4174           
1 53276U 22086AL  26049.82108535 -.00000490  00000+0 -12695-4 0  9995
2 53276  53.2172 268.8260 0001590  98.8987 261.2185 15.08838764198341
STARLINK-4178           
1 53277U 22086AM  26049.87261162  .00000014  00000+0  18976-4 0  9995
2 53277  53.2165 268.6250 0001504  85.4279 274.6885 15.08838275198355
STARLINK-4180           
1 53278U 22086AN  26049.81004830 -.00000004  00000+0  17871-4 0  9990
2 53278  53.2167 268.8755 0001552  90.6262 269.4908 15.08837502198342
STARLINK-4169           
1 53280U 22086AQ  26049.79758860  .00000689  00000+0  61369-4 0  9998
2 53280  53.2166 223.6051 0001325  90.3647 269.7497 15.08838485198981
STARLINK-4164           
1 53282U 22086AS  26049.86892920  .00000548  00000+0  52547-4 0  9996
2 53282  53.2173 268.6135 0001600  85.2863 274.8312 15.08839049198353
STARLINK-4175           
1 53283U 22086AT  26049.85788873  .00000998  00000+0  80775-4 0  9990
2 53283  53.2164 268.6617 0001444  98.2586 261.8570 15.08838039198351
STARLINK-4173           
1 53285U 22086AV  26049.84684950  .00000446  00000+0  46126-4 0  9992
2 53285  53.2167 268.7126 0001470  98.2185 261.8973 15.08836258198343
STARLINK-4165           
1 53286U 22086AW  26049.82472637 -.00000355  00000+0 -42135-5 0  9996
2 53286  53.2166 268.4995 0001580 101.5335 258.5835 15.08841135198341
STARLINK-4107           
1 53287U 22086AX  26049.83949605  .00001733  00000+0  12689-3 0  9990
2 53287  53.2165 268.7453 0001258 112.2813 247.8312 15.08847205198340
STARLINK-4162           
1 53288U 22086AY  26049.85052438 -.00001011  00000+0 -45461-4 0  9998
2 53288  53.2172 268.6945 0001510 111.2034 248.9119 15.08833978198348
STARLINK-4176           
1 53289U 22086AZ  26049.81604485  .00000659  00000+0  59488-4 0  9999
2 53289  53.2168 263.9915 0001401  98.2333 261.8818 15.08835763198405
STARLINK-4149           
1 53290U 22086BA  26049.84317058  .00000579  00000+0  54462-4 0  9999
2 53290  53.2167 268.7331 0001466  90.1357 269.9803 15.08832941198340
STARLINK-4166           
1 53291U 22086BB  26049.84912405  .00000497  00000+0  49304-4 0  9995
2 53291  53.2165 263.4913 0001532  85.3009 274.8158 15.08836916198413
STARLINK-4159           
1 53292U 22086BC  26049.85423023  .00000220  00000+0  31903-4 0  9990
2 53292  53.2160 268.8619 0001358  91.5154 268.5993 15.08836201198343
STARLINK-4148           
1 53293U 22086BD  26049.87353204  .00001020  00000+0  82177-4 0  9994
2 53293  53.2163 258.5812 0001283  91.4734 268.6405 15.08821616198486
STARLINK-4146           
1 53294U 22086BE  26049.82567285  .00000847  00000+0  71285-4 0  9990
2 53294  53.2155 258.6430 0001525  97.0531 263.0635 15.08848507198528
YAOGAN-35 03A           
1 53316U 22088A   26049.60063179  .00078250  00000+0  10682-2 0  9991
2 53316  35.0047 119.0848 0009581   6.7575 353.3278 15.56212552199456
YAOGAN-35 03B           
1 53318U 22088C   26049.86029692  .00006710  00000+0  28175-3 0  9992
2 53318  34.9868 233.9020 0013214  28.2182 331.9246 15.22689643198285
YAOGAN-35 03C           
1 53320U 22088E   26049.84821546  .00019069  00000+0  49834-3 0  9997
2 53320  34.9957 197.4759 0001649   9.5849 350.4901 15.37864970198661
COSMOS 2558             
1 53323U 22089A   26049.89482112  .00042620  00000+0  58290-3 0  9993
2 53323  97.2272 150.8856 0002108 114.0987 246.0490 15.57317182199320
TECMS                   
1 53346U 22090A   26048.65116729 -.00000183  00000+0 -52033-5 0  9992
2 53346  97.3278 120.0677 0002680 288.9663  71.1283 15.21303413196630
SBIRS GEO-6 (USA 336)   
1 53355U 22092A   26049.79573759 -.00000286  00000+0  00000+0 0  9994
2 53355   3.4618 315.6154 0002092  10.2035 248.3777  1.00271103 13045
KHAYYAM                 
1 53370U 22096A   26049.87116938  .00005639  00000+0  23212-3 0  9996
2 53370  97.3539 316.2521 0002711  88.2608 271.8940 15.24513977196550
STARLINK-4522           
1 53388U 22097A   26049.77876366 -.00001419  00000+0 -71062-4 0  9994
2 53388  53.2176 209.0147 0001225 103.0641 257.0488 15.08841724195998
STARLINK-4523           
1 53389U 22097B   26049.77139175  .00004067  00000+0  27328-3 0  9990
2 53389  53.2161 209.0469 0001477  91.9337 268.1824 15.08865797195810
STARLINK-4517           
1 53390U 22097C   26049.77508239  .00000140  00000+0  26877-4 0  9990
2 53390  53.2156 209.0305 0001350  98.8453 261.2692 15.08841904195967
STARLINK-4521           
1 53391U 22097D   26049.70148821  .00000367  00000+0  41166-4 0  9990
2 53391  53.2168 209.3609 0001244  93.0156 267.0979 15.08837507195809
STARLINK-4535           
1 53392U 22097E   26049.69412807  .00000504  00000+0  49756-4 0  9993
2 53392  53.2162 209.3944 0001387  88.3192 271.7959 15.08839262195801
STARLINK-4530           
1 53393U 22097F   26049.69780680  .00000370  00000+0  41305-4 0  9994
2 53393  53.2164 209.3778 0001271  86.3179 273.7959 15.08838512195803
STARLINK-4544           
1 53394U 22097G   26049.84219741  .00000723  00000+0  63537-4 0  9990
2 53394  53.2161 198.3409 0001193  96.3400 263.7728 15.08839789195978
STARLINK-4534           
1 53395U 22097H   26049.75764666  .00003169  00000+0  21713-3 0  9998
2 53395  53.2166 209.1199 0001216  81.0980 279.0150 15.08829585195658
STARLINK-4524           
1 53396U 22097J   26049.87445129 -.00000081  00000+0  12981-4 0  9991
2 53396  53.2161 208.5874 0001438  92.9936 267.1221 15.08834213195678
STARLINK-4515           
1 53397U 22097K   26049.75301110  .00001675  00000+0  12329-3 0  9994
2 53397  53.2160 209.1307 0001192  86.4327 273.6802 15.08836571195659
